WEILAI 1R               
1 44884U 19093F   24364.86446594  .00011706  00000+0  11181-2 0  9993
2 44884  97.8244  84.4957 0011501  33.1577 327.0361 14.93383451272469
FLORIPASAT-1            
1 44885U 19093G   24364.92054447  .00015136  00000+0  13823-2 0  9999
2 44885  97.8294  86.5131 0011842  32.3459 327.8485 14.95090473272567
SHUNTIAN                
1 44886U 19093H   24364.91929976  .00008463  00000+0  86741-3 0  9992
2 44886  97.8345  85.5368 0013797  44.1679 316.0638 14.90636106272454
2019-093L               
1 44889U 19093L   24364.94844180  .00008970  00000+0  94240-3 0  9997
2 44889  97.8072  78.7089 0013650  29.7804 330.4187 14.89622615272126
ELEKTRO-L 3             
1 44903U 19095A   24364.91160546 -.00000071  00000+0  00000+0 0  9992
2 44903   0.0586 153.2744 0001951 138.3050 211.4843  1.00271269 18351
GONETS-M 14             
1 44905U 19096A   24364.94992149  .00000063  00000+0  38079-3 0  9991
2 44905  82.5229  55.8360 0012917 235.0908 124.8958 12.42884237227319
GONETS-M 15             
1 44906U 19096B   24364.89498835  .00000038  00000+0  20379-3 0  9995
2 44906  82.5249  56.2392 0014508 259.2217 100.7230 12.42886671227276
GONETS-M 16             
1 44907U 19096C   24364.92068136  .00000059  00000+0  35375-3 0  9992
2 44907  82.5194  55.4140 0010348 304.0266  55.9830 12.42888027227262
RS-44 & BREEZE-KM R/B   
1 44909U 19096E   24364.64191203  .00000017  00000+0  28809-4 0  9994
2 44909  82.5223 334.8920 0216734 314.4722  43.8832 12.79737414233972
JILIN-1 KUANFU 01       
1 45016U 20003A   24364.92153685  .00012727  00000+0  66590-3 0  9996
2 45016  97.5617  76.5312 0012174 159.7218 200.4500 15.15917306274670
XINGYUN-2 01            
1 45602U 20028A   24364.92679727  .00006611  00000+0  43448-3 0  9996
2 45602  97.4588 359.3783 0008205 235.8326 124.2124 15.07899113254216
XINGYUN-2 02            
1 45603U 20028B   24364.91757816  .00006639  00000+0  43645-3 0  9991
2 45603  97.5107  10.5173 0010674 312.0031  48.0288 15.07869540254213
HAIYANG-1D              
1 45721U 20036A   24364.90596246  .00000677  00000+0  25812-3 0  9990
2 45721  98.6125 304.3268 0000975 226.7179 133.3925 14.34065303238393
M2 PATHFINDER           
1 45727U 20037E   24364.90584944  .00009041  00000+0  72995-3 0  9997
2 45727  97.7770 180.8096 0011543 167.0878 193.0643 15.00023168245257
GAOFEN DUOMO (GFDM)     
1 45856U 20042A   24364.90176826  .00002950  00000+0  42651-3 0  9990
2 45856  97.8478  70.9283 0013947  15.2035 344.9592 14.76848356242154
ZINYUAN-3               
1 45939U 20051A   24364.91691190  .00013546  00000+0  60531-3 0  9999
2 45939  97.3475  76.7533 0006405 100.7886 259.4071 15.21433348246119
TIANTUO 5               
1 46234U 20058C   24364.94664080  .00094902  00000+0  10927-2 0  9994
2 46234  97.2690  64.7088 0007341  28.3584 331.8072 15.61640937243085
TYVAK-0172              
1 46267U 20059C   24364.83810429  .00043609  00000+0  21026-2 0  9999
2 46267  97.7971 211.5286 0003247  28.8674 331.2738 15.18564711236291
ION-MK01                
1 46274U 20061C   24364.93051324  .00033885  00000+0  83137-3 0  9999
2 46274  97.2729  66.5106 0004793 102.3108 257.8675 15.40617602240001
UPMSAT-2                
1 46276U 20061E   24364.93452708  .00052990  00000+0  10025-2 0  9995
2 46276  97.2714  70.3398 0001824 119.5441 240.5991 15.48224758240302
NEMO-HD                 
1 46277U 20061F   24364.90187397  .00017160  00000+0  56031-3 0  9990
2 46277  97.2720  63.4692 0002350 125.6728 234.4733 15.31821297239847
DIDO 3                  
1 46284U 20061N   24364.62381717  .00141997  00000+0  17074-2 0  9998
2 46284  97.3182  72.1250 0001333 226.8435 133.2711 15.60373731239595
AMICALSAT               
1 46287U 20061R   24364.14810100  .00646297  16842-3  20237-2 0  9994
2 46287  97.3101  75.8896 0003698 278.2837  81.8017 15.91458874239838
3CAT-5A                 
1 46292U 20061W   24364.13172405  .00019415  00000+0  70392-3 0  9997
2 46292  97.3226  61.0343 0001573 214.5526 145.5612 15.28390434238839
3CAT-5B                 
1 46293U 20061X   24364.43168746  .00019914  00000+0  71754-3 0  9991
2 46293  97.3235  61.6946 0001584 209.1525 150.9627 15.28589975238876
OSM-1 CICERO            
1 46294U 20061Y   24364.93123326  .00059130  00000+0  11532-2 0  9993
2 46294  97.3284  70.8983 0001905 174.5109 185.6163 15.47317242239546
NAPA-1                  
1 46320U 20061BA  24364.92206541  .00033195  00000+0  10811-2 0  9995
2 46320  97.3283  65.0747 0002078 131.1435 228.9986 15.31770345239164
JILIN-1 GAOFEN 3B       
1 46454U 20065A   24364.91165168  .00039261  00000+0  11222-2 0  9992
2 46454  97.3125  47.5187 0012948 237.6677 122.3314 15.35799622237384
JILIN-1 GAOFEN 3E       
1 46457U 20065D   24364.90484542  .00029992  00000+0  10558-2 0  9995
2 46457  97.3130  47.3923 0025476 301.7100  58.1657 15.28957283237368
JILIN-1 GAOFEN 3F       
1 46458U 20065E   24364.88873566  .00030013  00000+0  10744-2 0  9994
2 46458  97.3062  46.0001 0026531 289.4285  70.4088 15.28382675237367
JILIN-1 GAOFEN 3G       
1 46459U 20065F   24364.89368421  .00040152  00000+0  11305-2 0  9994
2 46459  97.3185  48.8187 0012256 232.9968 127.0155 15.36275371237388
JILIN-1 GAOFEN 3H       
1 46460U 20065G   24364.89861940  .00041465  00000+0  11133-2 0  9997
2 46460  97.3088  46.4099 0005954 245.1546 114.9081 15.37804115237370
JILIN-1 GAOFEN 3J       
1 46462U 20065J   24364.88872063  .00038654  00000+0  11084-2 0  9997
2 46462  97.3125  47.6423 0006450 259.0110 101.0409 15.35765733237394
HAIYANG-2C              
1 46469U 20066A   24364.90746681  .00000099  00000+0  16346-3 0  9993
2 46469  65.9965 105.5245 0004501 282.8791  77.1774 13.83377881215594
HJ-2A                   
1 46478U 20067A   24364.95524933  .00002834  00000+0  41343-3 0  9997
2 46478  97.9286  83.5562 0003194 165.2176 194.9128 14.76564394229428
HJ-2B                   
1 46479U 20067B   24364.92309128  .00002782  00000+0  40573-3 0  9998
2 46479  97.9332  84.1919 0001412 318.1085  42.0017 14.76581676229425
GONETS-M 17             
1 46486U 20068A   24364.86557518  .00000030  00000+0  14360-3 0  9997
2 46486  82.4990 319.8843 0023696 118.4802 241.8668 12.42884462192781
GONETS-M 18             
1 46487U 20068B   24364.91209084  .00000025  00000+0  10868-3 0  9999
2 46487  82.4945 319.1790 0020928 114.9240 245.4018 12.42873492192777
GONETS-M 19             
1 46488U 20068C   24364.88532858  .00000028  00000+0  13033-3 0  9994
2 46488  82.4969 319.5322 0014489 128.2698 231.9688 12.42899119192877
MEZNSAT                 
1 46489U 20068D   24364.39661704  .00090943  00000+0  16538-2 0  9991
2 46489  97.8241 342.2585 0006281 358.4360   1.6869 15.49182747234736
YARILO 1                
1 46490U 20068E   24364.84933886  .00207397  00000+0  23917-2 0  9998
2 46490  97.8237 345.7237 0004370   8.9189 351.2144 15.61241613234987
YARILO 2                
1 46491U 20068F   24364.82681749  .00289205  00000+0  24358-2 0  9993
2 46491  97.8082 345.8198 0004686  57.3841 302.7871 15.68939660234998
LACUNASAT-3             
1 46492U 20068G   24364.83780198  .00338242  00000+0  23327-2 0  9994
2 46492  97.8112 347.5940 0003725  70.2752 289.8912 15.73601151235095
DEKART                  
1 46493U 20068H   24364.75477582  .00021183  00000+0  93381-3 0  9997
2 46493  97.8404 332.0484 0013465  10.8525 349.2997 15.21747501234065
NORBI                   
1 46494U 20068J   24364.86234421  .00026790  00000+0  10737-2 0  9995
2 46494  97.8399 333.7727 0012309   7.7486 352.3938 15.24934085234185
SALSAT                  
1 46495U 20068K   24364.89400574  .00016320  00000+0  78982-3 0  9998
2 46495  97.8419 330.1377 0013067  11.3302 348.8222 15.18591577233959
ICEYE-X6                
1 46497U 20068M   24364.91178458  .00010838  00000+0  85807-3 0  9998
2 46497  98.0098 326.0979 0006894  78.2631 281.9365 15.00762950233025
NETSAT-4                
1 46504U 20068U   24364.62294646  .00025421  00000+0  10748-2 0  9998
2 46504  97.8287 328.3615 0010749  54.7781 305.4460 15.23158154233839
NETSAT-3                
1 46505U 20068V   24364.68858851  .00023169  00000+0  10040-2 0  9991
2 46505  97.8276 327.6876 0010361  62.8905 297.3386 15.22345239233823
NETSAT-1                
1 46506U 20068W   24364.64269886  .00018610  00000+0  88682-3 0  9995
2 46506  97.8300 326.4530 0009482  72.5530 287.6740 15.19135017233733
NETSAT-2                
1 46507U 20068X   24364.71417097  .00025336  00000+0  10769-2 0  9996
2 46507  97.8278 328.0287 0008765  75.6696 284.5512 15.22997398233796
TIANQI-6                
1 46810U 20076D   24364.59928909  .00010200  00000+0  78268-3 0  9990
2 46810  35.0014  75.6048 0012924 156.8714 203.2577 15.01015867228028
KSM1-C                  
1 46906U 20081B   24364.67373067  .00017676  00000+0  93832-3 0  9998
2 46906  36.8946  89.9108 0004377 106.2040 253.9187 15.14640990227748
KSM1-D                  
1 46907U 20081C   24364.72443911  .00016058  00000+0  87127-3 0  9994
2 46907  36.8980  91.6908 0006409 113.1629 246.9791 15.13884623227759
KSM1-A                  
1 46912U 20081H   24364.69844214  .00017440  00000+0  93264-3 0  9992
2 46912  36.8975  89.5441 0005681 165.8463 194.2442 15.14378765227785
R2                      
1 46913U 20081J   24364.54568981  .00015520  00000+0  83262-3 0  9995
2 46913  36.9006  88.8110 0010303 124.5451 235.6268 15.14265979227141
KSM1-B                  
1 46914U 20081K   24364.67686878  .00015658  00000+0  85173-3 0  9991
2 46914  36.9020  91.6610 0008880 129.0583 231.0953 15.13785128230842
GONETS-M 20             
1 47227U 20091A   24364.90447794  .00000044  00000+0  24623-3 0  9994
2 47227  82.5039 274.5167 0019871 268.8485  91.0318 12.42888997184700
GONETS-M 21             
1 47228U 20091B   24364.87579080  .00000031  00000+0  15184-3 0  9993
2 47228  82.4963 273.5704 0013952 283.4962  76.4563 12.42857168184692
